0 FENGYUN 1C DEB
1 31434U 99025BTW 13283.78043609  .00007335  00000-0  26603-2 0  9597
2 31434 099.0221 027.5496 0064076 115.4884 245.3429 14.32250952336135
0 FENGYUN 1C DEB
1 31434U 99025BTW 13284.08391554  .00007252  00000-0  26442-2 0  9607
2 31434 099.0246 027.8640 0063375 114.8910 009.8626 14.32261813336174
0 FENGYUN 1C DEB
1 31434U 99025BTW 13285.83014057  .00005591  00000-0  20424-2 0  9610
2 31434 099.0243 029.6809 0063175 109.8178 013.6974 14.32282193336427
0 FENGYUN 1C DEB
1 31434U 99025BTW 13288.13434266  .00010299  00000-0  37440-2 0  9622
2 31434 099.0257 032.0772 0062834 103.1555 014.7255 14.32310091336755
0 FENGYUN 1C DEB
1 31434U 99025BTW 13289.81256794  .00008144  00000-0  29638-2 0  9633
2 31434 099.0260 033.8236 0062710 098.3490 028.1843 14.32333943336998
0 FENGYUN 1C DEB
1 31434U 99025BTW 13291.26548766  .00007383  00000-0  26884-2 0  9643
2 31434 099.0256 035.3344 0062479 094.1260 320.0728 14.32352350337205
0 FENGYUN 1C DEB
1 31434U 99025BTW 13293.50200583  .00007461  00000-0  27154-2 0  9653
2 31434 099.0247 037.6602 0062171 087.5418 332.8107 14.32380581337521
0 FENGYUN 1C DEB
1 31434U 99025BTW 13295.81969711  .00007515  00000-0  27337-2 0  9668
2 31434 099.0245 040.0738 0061997 080.8697 044.2015 14.32409737337850
